[{"OBJECT_NAME":"ICEYE-X35","OBJECT_ID":"2023-174AY","EPOCH":"2026-03-09T23:23:30.016608","MEAN_MOTION":15.44468851,"ECCENTRICITY":0.00107431,"INCLINATION":97.3849,"RA_OF_ASC_NODE":151.4029,"ARG_OF_PERICENTER":192.4001,"MEAN_ANOMALY":167.6984,"EPHEMERIS_TYPE":0,"CLASSIFICATION_TYPE":"U","NORAD_CAT_ID":58302,"ELEMENT_SET_NO":999,"REV_AT_EPOCH":12999,"BSTAR":0.00096661577,"MEAN_MOTION_DOT":0.00044959,"MEAN_MOTION_DDOT":0},{"OBJECT_NAME":"CZ-2C R\/B","OBJECT_ID":"2022-058K","EPOCH":"2026-03-09T23:05:50.922816","MEAN_MOTION":15.54254025,"ECCENTRICITY":0.00421889,"INCLINATION":50.1896,"RA_OF_ASC_NODE":316.8869,"ARG_OF_PERICENTER":202.0876,"MEAN_ANOMALY":157.8278,"EPHEMERIS_TYPE":0,"CLASSIFICATION_TYPE":"U","NORAD_CAT_ID":52794,"ELEMENT_SET_NO":999,"REV_AT_EPOCH":21017,"BSTAR":0.00054229515,"MEAN_MOTION_DOT":0.00037216,"MEAN_MOTION_DDOT":0}]
